{
    "links": {
        "self": "http://www.neowsapp.com/rest/v1/neo/3177225?api_key=iIulBulltgU6a56xZRHN4H3l9WmuAYTsLGpBGhQ2"
    },
    "id": "3177225",
    "neo_reference_id": "3177225",
    "name": "(2004 FB16)",
    "designation": "2004 FB16",
    "nasa_jpl_url": "http://ssd.jpl.nasa.gov/sbdb.cgi?sstr=3177225",
    "absolute_magnitude_h": 25.5,
    "estimated_diameter": {
        "kilometers": {
            "estimated_diameter_min": 0.0211132445,
            "estimated_diameter_max": 0.0472106499
        },
        "meters": {
            "estimated_diameter_min": 21.113244479,
            "estimated_diameter_max": 47.2106498806
        },
        "miles": {
            "estimated_diameter_min": 0.0131191578,
            "estimated_diameter_max": 0.0293353287
        },
        "feet": {
            "estimated_diameter_min": 69.2691770164,
            "estimated_diameter_max": 154.8905885541
        }
    },
    "is_potentially_hazardous_asteroid": false,
    "close_approach_data": [
        {
            "close_approach_date": "2004-03-26",
            "close_approach_date_full": "2004-Mar-26 12:08",
            "epoch_date_close_approach": 1080302880000,
            "relative_velocity": {
                "kilometers_per_second": "8.5699940434",
                "kilometers_per_hour": "30851.9785564097",
                "miles_per_hour": "19170.2196757869"
            },
            "miss_distance": {
                "astronomical": "0.0518491199",
                "lunar": "20.1693076411",
                "kilometers": "7756517.898414613",
                "miles": "4819676.7306951394"
            },
            "orbiting_body": "Earth"
        }
    ],
    "orbital_data": {
        "orbit_id": "9",
        "orbit_determination_date": "2017-04-06 09:13:01",
        "first_observation_date": "2004-03-23",
        "last_observation_date": "2004-03-30",
        "data_arc_in_days": 7,
        "observations_used": 21,
        "orbit_uncertainty": "8",
        "minimum_orbit_intersection": ".0518059",
        "jupiter_tisserand_invariant": "3.948",
        "epoch_osculation": "2453091.5",
        "eccentricity": ".4139331569937873",
        "semi_major_axis": "1.790395590080074",
        "inclination": "12.75513774108767",
        "ascending_node_longitude": "4.781350305267527",
        "orbital_period": "875.0279513622079",
        "perihelion_distance": "1.049291491210474",
        "perihelion_argument": "181.6483090073974",
        "aphelion_distance": "2.531499688949673",
        "perihelion_time": "2453091.407776217989",
        "mean_anomaly": ".0379422868404086",
        "mean_motion": ".4114154290038011",
        "equinox": "J2000",
        "orbit_class": {
            "orbit_class_type": "AMO",
            "orbit_class_description": "Near-Earth asteroid orbits similar to that of 1221 Amor",
            "orbit_class_range": "1.017 AU < q (perihelion) < 1.3 AU"
        }
    },
    "is_sentry_object": false
}